{"type": "FeatureCollection", "features": [ {"type": "Feature", "properties": {"norad_id": 62339, "name": "GPS BIII-7  (PRN 01)", "group": "gps-ops", "lat": -54.90464997094525, "lon": -108.96907411313215, "alt_km": 20179.424332511364, "timestamp": "2025-12-16T05:49:09.473858+00:00", "meta": {"OBJECT_NAME": "GPS BIII-7  (PRN 01)", "OBJECT_ID": "2024-242A", "EPOCH": "2025-12-15T08:51:56.700864", "MEAN_MOTION": 2.0056809, "ECCENTRICITY": 0.00123957, "INCLINATION": 54.9228, "RA_OF_ASC_NODE": 341.6333, "ARG_OF_PERICENTER": 345.2723, "MEAN_ANOMALY": 14.1201, "EPHEMERIS_TYPE": 0, "CLASSIFICATION_TYPE": "U", "NORAD_CAT_ID": 62339, "ELEMENT_SET_NO": 999, "REV_AT_EPOCH": 756, "BSTAR": 0, "MEAN_MOTION_DOT": -9.1e-07, "MEAN_MOTION_DDOT": 0}, "tle": {"line1": "1 62339U 24242A   25349.36940626 -.00000091  00000+0  00000+0 0  9995", "line2": "2 62339  54.9228 341.6333 0012395 345.2723  14.1201  2.00568090  7561"}}, "geometry": {"type": "Point", "coordinates": [-108.96907411313215, -54.90464997094525]}}, {"type": "Feature", "properties": {"norad_id": 64202, "name": "GPS BIII-8  (PRN 21)", "group": "gps-ops", "lat": 54.076741282906596, "lon": 144.2870757841793, "alt_km": 20189.390928293036, "timestamp": "2025-12-16T05:49:09.473880+00:00", "meta": {"OBJECT_NAME": "GPS BIII-8  (PRN 21)", "OBJECT_ID": "2025-116A", "EPOCH": "2025-12-14T02:46:13.653120", "MEAN_MOTION": 2.00558299, "ECCENTRICITY": 0.00056153, "INCLINATION": 55.1067, "RA_OF_ASC_NODE": 38.5851, "ARG_OF_PERICENTER": 308.147, "MEAN_ANOMALY": 55.2369, "EPHEMERIS_TYPE": 0, "CLASSIFICATION_TYPE": "U", "NORAD_CAT_ID": 64202, "ELEMENT_SET_NO": 999, "REV_AT_EPOCH": 416, "BSTAR": 0, "MEAN_MOTION_DOT": -9.6e-07, "MEAN_MOTION_DDOT": 0}, "tle": {"line1": "1 64202U 25116A   25348.11543580 -.00000096  00000+0  00000+0 0  9992", "line2": "2 64202  55.1067  38.5851 0005615 308.1470  55.2369  2.00558299  4161"}}, "geometry": {"type": "Point", "coordinates": [144.2870757841793, 54.076741282906596]}}]}